{
  "type": "FeatureCollection",
  "features": [
    {
      "type": "Feature",
      "properties": {
        "norad_id": 67075,
        "name": "STARLINK-36230",
        "group": "last-30-days",
        "lat": 1.9686901421534353,
        "lon": 31.94626489429974,
        "alt_km": 337.39072272687827,
        "timestamp": "2025-12-25T20:42:37.411374+00:00",
        "meta_object_name": "STARLINK-36230",
        "meta_object_id": "2025-298A",
        "meta_epoch": "2025-12-25T06:00:04.000320",
        "meta_mean_motion": 15.80770838,
        "meta_eccentricity": 0.0003813,
        "meta_inclination": 69.9965,
        "meta_ra_of_asc_node": 214.4109,
        "meta_arg_of_pericenter": 272.0136,
        "meta_mean_anomaly": 21.7182,
        "meta_ephemeris_type": 0,
        "meta_classification_type": "U",
        "meta_norad_cat_id": 67075,
        "meta_element_set_no": 999,
        "meta_rev_at_epoch": 298,
        "meta_bstar": -0.010510932,
        "meta_mean_motion_dot": -0.01787436,
        "meta_mean_motion_ddot": 0,
        "tle_line1": "1 67075U 25298A   25359.25004630 -.01787436  00000+0 -10511-1 0  9991",
        "tle_line2": "2 67075  69.9965 214.4109 0003813 272.0136  21.7182 15.80770838  2985"
      },
      "geometry": {
        "type": "Point",
        "coordinates": [
          31.94626489429974,
          1.9686901421534353
        ]
      }
    },
    {
      "type": "Feature",
      "properties": {
        "norad_id": 67076,
        "name": "STARLINK-36240",
        "group": "last-30-days",
        "lat": 0.14769851073482784,
        "lon": 32.60747036252377,
        "alt_km": 337.44048920762816,
        "timestamp": "2025-12-25T20:42:37.411384+00:00",
        "meta_object_name": "STARLINK-36240",
        "meta_object_id": "2025-298B",
        "meta_epoch": "2025-12-25T06:00:04.000320",
        "meta_mean_motion": 15.80769689,
        "meta_eccentricity": 0.0003752,
        "meta_inclination": 69.9966,
        "meta_ra_of_asc_node": 214.4084,
        "meta_arg_of_pericenter": 269.7164,
        "meta_mean_anomaly": 25.9501,
        "meta_ephemeris_type": 0,
        "meta_classification_type": "U",
        "meta_norad_cat_id": 67076,
        "meta_element_set_no": 999,
        "meta_rev_at_epoch": 298,
        "meta_bstar": -0.010492154,
        "meta_mean_motion_dot": -0.01784469,
        "meta_mean_motion_ddot": 0,
        "tle_line1": "1 67076U 25298B   25359.25004630 -.01784469  00000+0 -10492-1 0  9993",
        "tle_line2": "2 67076  69.9966 214.4084 0003752 269.7164  25.9501 15.80769689  2988"
      },
      "geometry": {
        "type": "Point",
        "coordinates": [
          32.60747036252377,
          0.14769851073482784
        ]
      }
    },
    {
      "type": "Feature",
      "properties": {
        "norad_id": 67077,
        "name": "STARLINK-36243",
        "group": "last-30-days",
        "lat": -1.9210433860986154,
        "lon": 33.358822224495924,
        "alt_km": 337.79175052783194,
        "timestamp": "2025-12-25T20:42:37.411396+00:00",
        "meta_object_name": "STARLINK-36243",
        "meta_object_id": "2025-298C",
        "meta_epoch": "2025-12-25T06:00:04.000320",
        "meta_mean_motion": 15.80759256,
        "meta_eccentricity": 0.00037818,
        "meta_inclination": 69.9963,
        "meta_ra_of_asc_node": 214.4058,
        "meta_arg_of_pericenter": 272.5449,
        "meta_mean_anomaly": 25.3519,
        "meta_ephemeris_type": 0,
        "meta_classification_type": "U",
        "meta_norad_cat_id": 67077,
        "meta_element_set_no": 999,
        "meta_rev_at_epoch": 298,
        "meta_bstar": -0.010520122,
        "meta_mean_motion_dot": -0.01787931,
        "meta_mean_motion_ddot": 0,
        "tle_line1": "1 67077U 25298C   25359.25004630 -.01787931  00000+0 -10520-1 0  9993",
        "tle_line2": "2 67077  69.9963 214.4058 0003781 272.5449  25.3519 15.80759256  2989"
      },
      "geometry": {
        "type": "Point",
        "coordinates": [
          33.358822224495924,
          -1.9210433860986154
        ]
      }
    },
    {
      "type": "Feature",
      "properties": {
        "norad_id": 67078,
        "name": "STARLINK-36236",
        "group": "last-30-days",
        "lat": -3.626172960498136,
        "lon": 33.979413767335465,
        "alt_km": 337.8435534255723,
        "timestamp": "2025-12-25T20:42:37.411407+00:00",
        "meta_object_name": "STARLINK-36236",
        "meta_object_id": "2025-298D",
        "meta_epoch": "2025-12-25T06:00:04.000320",
        "meta_mean_motion": 15.80761647,
        "meta_eccentricity": 0.00038982,
        "meta_inclination": 69.9965,
        "meta_ra_of_asc_node": 214.4036,
        "meta_arg_of_pericenter": 271.0766,
        "meta_mean_anomaly": 28.6269,
        "meta_ephemeris_type": 0,
        "meta_classification_type": "U",
        "meta_norad_cat_id": 67078,
        "meta_element_set_no": 999,
        "meta_rev_at_epoch": 298,
        "meta_bstar": -0.010501497,
        "meta_mean_motion_dot": -0.01785448,
        "meta_mean_motion_ddot": 0,
        "tle_line1": "1 67078U 25298D   25359.25004630 -.01785448  00000+0 -10501-1 0  9994",
        "tle_line2": "2 67078  69.9965 214.4036 0003898 271.0766  28.6269 15.80761647  2988"
      },
      "geometry": {
        "type": "Point",
        "coordinates": [
          33.979413767335465,
          -3.626172960498136
        ]
      }
    },
    {
      "type": "Feature",
      "properties": {
        "norad_id": 67079,
        "name": "STARLINK-36159",
        "group": "last-30-days",
        "lat": -5.709871702818322,
        "lon": 34.74163458049373,
        "alt_km": 338.0933712394972,
        "timestamp": "2025-12-25T20:42:37.411418+00:00",
        "meta_object_name": "STARLINK-36159",
        "meta_object_id": "2025-298E",
        "meta_epoch": "2025-12-25T06:00:04.000320",
        "meta_mean_motion": 15.80749966,
        "meta_eccentricity": 0.00038302,
        "meta_inclination": 69.9966,
        "meta_ra_of_asc_node": 214.4012,
        "meta_arg_of_pericenter": 272.2926,
        "meta_mean_anomaly": 29.6525,
        "meta_ephemeris_type": 0,
        "meta_classification_type": "U",
        "meta_norad_cat_id": 67079,
        "meta_element_set_no": 999,
        "meta_rev_at_epoch": 298,
        "meta_bstar": -0.010498708,
        "meta_mean_motion_dot": -0.01784101,
        "meta_mean_motion_ddot": 0,
        "tle_line1": "1 67079U 25298E   25359.25004630 -.01784101  00000+0 -10499-1 0  9996",
        "tle_line2": "2 67079  69.9966 214.4012 0003830 272.2926  29.6525 15.80749966  2987"
      },
      "geometry": {
        "type": "Point",
        "coordinates": [
          34.74163458049373,
          -5.709871702818322
        ]
      }
    },
    {
      "type": "Feature",
      "properties": {
        "norad_id": 67080,
        "name": "STARLINK-36158",
        "group": "last-30-days",
        "lat": -7.694679615865594,
        "lon": 35.472789418505045,
        "alt_km": 338.2179172284459,
        "timestamp": "2025-12-25T20:42:37.411428+00:00",
        "meta_object_name": "STARLINK-36158",
        "meta_object_id": "2025-298F",
        "meta_epoch": "2025-12-25T06:00:04.000320",
        "meta_mean_motion": 15.80744389,
        "meta_eccentricity": 0.00039132,
        "meta_inclination": 69.9963,
        "meta_ra_of_asc_node": 214.3985,
        "meta_arg_of_pericenter": 271.3908,
        "meta_mean_anomaly": 32.6863,
        "meta_ephemeris_type": 0,
        "meta_classification_type": "U",
        "meta_norad_cat_id": 67080,
        "meta_element_set_no": 999,
        "meta_rev_at_epoch": 292,
        "meta_bstar": -0.010520276,
        "meta_mean_motion_dot": -0.01787018,
        "meta_mean_motion_ddot": 0,
        "tle_line1": "1 67080U 25298F   25359.25004630 -.01787018  00000+0 -10520-1 0  9993",
        "tle_line2": "2 67080  69.9963 214.3985 0003913 271.3908  32.6863 15.80744389  2923"
      },
      "geometry": {
        "type": "Point",
        "coordinates": [
          35.472789418505045,
          -7.694679615865594
        ]
      }
    },
    {
      "type": "Feature",
      "properties": {
        "norad_id": 67081,
        "name": "STARLINK-35864",
        "group": "last-30-days",
        "lat": -9.534453023389455,
        "lon": 36.15721030633116,
        "alt_km": 338.31917061943295,
        "timestamp": "2025-12-25T20:42:37.411441+00:00",
        "meta_object_name": "STARLINK-35864",
        "meta_object_id": "2025-298G",
        "meta_epoch": "2025-12-25T06:00:04.000320",
        "meta_mean_motion": 15.80736615,
        "meta_eccentricity": 0.00038203,
        "meta_inclination": 69.9966,
        "meta_ra_of_asc_node": 214.3962,
        "meta_arg_of_pericenter": 270.6803,
        "meta_mean_anomaly": 35.3637,
        "meta_ephemeris_type": 0,
        "meta_classification_type": "U",
        "meta_norad_cat_id": 67081,
        "meta_element_set_no": 999,
        "meta_rev_at_epoch": 298,
        "meta_bstar": -0.010482118,
        "meta_mean_motion_dot": -0.01780632,
        "meta_mean_motion_ddot": 0,
        "tle_line1": "1 67081U 25298G   25359.25004630 -.01780632  00000+0 -10482-1 0  9996",
        "tle_line2": "2 67081  69.9966 214.3962 0003820 270.6803  35.3637 15.80736615  2983"
      },
      "geometry": {
        "type": "Point",
        "coordinates": [
          36.15721030633116,
          -9.534453023389455
        ]
      }
    }
  ]
}